[{"OBJECT_NAME":"STARLINK-3901","OBJECT_ID":"2022-051AQ","EPOCH":"2026-03-09T10:21:06.774624","MEAN_MOTION":15.08837076,"ECCENTRICITY":0.00012495,"INCLINATION":53.2173,"RA_OF_ASC_NODE":120.2807,"ARG_OF_PERICENTER":94.5192,"MEAN_ANOMALY":265.5943,"EPHEMERIS_TYPE":0,"CLASSIFICATION_TYPE":"U","NORAD_CAT_ID":52574,"ELEMENT_SET_NO":999,"REV_AT_EPOCH":21154,"BSTAR":-1.314571e-5,"MEAN_MOTION_DOT":-4.97e-6,"MEAN_MOTION_DDOT":0},{"OBJECT_NAME":"DELTA 1 DEB","OBJECT_ID":"1972-058EG","EPOCH":"2026-03-09T15:29:57.375744","MEAN_MOTION":14.93143945,"ECCENTRICITY":0.0071537,"INCLINATION":98.4418,"RA_OF_ASC_NODE":299.7647,"ARG_OF_PERICENTER":185.1751,"MEAN_ANOMALY":174.8735,"EPHEMERIS_TYPE":0,"CLASSIFICATION_TYPE":"U","NORAD_CAT_ID":8314,"ELEMENT_SET_NO":999,"REV_AT_EPOCH":83297,"BSTAR":0.00043799,"MEAN_MOTION_DOT":4.734e-5,"MEAN_MOTION_DDOT":0}]
